LYNK TOWER 5            
1 59121U 24043Z   26068.92489786  .00009048  00000+0  31902-3 0  9994
2 59121  97.5458 204.7305 0010406 234.6422 125.3846 15.29454506111860
STARLINK-33913          
1 65215U 25176T   26068.47449394  .00024915  00000+0  85110-3 0  9994
2 65215  53.1584 156.1278 0001160  63.2631 296.8489 15.30178168 33053
